{
  "type": "FeatureCollection",
  "features": [
    {
      "type": "Feature",
      "properties": {
        "norad_id": 44873,
        "name": "CSG-1",
        "group": "resource",
        "lat": -44.64110885509817,
        "lon": 175.43513758298013,
        "alt_km": 629.8749411656227,
        "timestamp": "2025-12-12T05:47:28.429748+00:00",
        "meta_object_name": "CSG-1",
        "meta_object_id": "2019-092A",
        "meta_epoch": "2025-12-12T01:08:02.417280",
        "meta_mean_motion": 14.82162876,
        "meta_eccentricity": 0.00014448,
        "meta_inclination": 97.881,
        "meta_ra_of_asc_node": 167.3818,
        "meta_arg_of_pericenter": 84.6461,
        "meta_mean_anomaly": 275.4916,
        "meta_ephemeris_type": 0,
        "meta_classification_type": "U",
        "meta_norad_cat_id": 44873,
        "meta_element_set_no": 999,
        "meta_rev_at_epoch": 32375,
        "meta_bstar": 0.00013296612,
        "meta_mean_motion_dot": 1.007e-05,
        "meta_mean_motion_ddot": 0,
        "tle_line1": "1 44873U 19092A   25346.04725020  .00001007  00000+0  13297-3 0  9999",
        "tle_line2": "2 44873  97.8810 167.3818 0001444  84.6461 275.4916 14.82162876323756"
      },
      "geometry": {
        "type": "Point",
        "coordinates": [
          175.43513758298013,
          -44.64110885509817
        ]
      }
    },
    {
      "type": "Feature",
      "properties": {
        "norad_id": 46277,
        "name": "NEMO-HD",
        "group": "resource",
        "lat": 9.291637610933407,
        "lon": 44.15665898339496,
        "alt_km": 446.13210274266476,
        "timestamp": "2025-12-12T05:47:28.429758+00:00",
        "meta_object_name": "NEMO-HD",
        "meta_object_id": "2020-061F",
        "meta_epoch": "2025-12-11T23:30:50.704992",
        "meta_mean_motion": 15.40300762,
        "meta_eccentricity": 0.00019279,
        "meta_inclination": 97.2213,
        "meta_ra_of_asc_node": 45.0871,
        "meta_arg_of_pericenter": 57.5782,
        "meta_mean_anomaly": 302.5651,
        "meta_ephemeris_type": 0,
        "meta_classification_type": "U",
        "meta_norad_cat_id": 46277,
        "meta_element_set_no": 999,
        "meta_rev_at_epoch": 29312,
        "meta_bstar": 0.00039241903,
        "meta_mean_motion_dot": 0.00015744,
        "meta_mean_motion_ddot": 0,
        "tle_line1": "1 46277U 20061F   25345.97975353  .00015744  00000+0  39242-3 0  9995",
        "tle_line2": "2 46277  97.2213  45.0871 0001927  57.5782 302.5651 15.40300762293127"
      },
      "geometry": {
        "type": "Point",
        "coordinates": [
          44.15665898339496,
          9.291637610933407
        ]
      }
    },
    {
      "type": "Feature",
      "properties": {
        "norad_id": 46984,
        "name": "SENTINEL-6A",
        "group": "resource",
        "lat": -35.21287221579653,
        "lon": 145.05362025946675,
        "alt_km": 1339.3181582778188,
        "timestamp": "2025-12-12T05:47:28.429768+00:00",
        "meta_object_name": "SENTINEL-6A",
        "meta_object_id": "2020-086A",
        "meta_epoch": "2025-12-11T20:37:32.818368",
        "meta_mean_motion": 12.80930603,
        "meta_eccentricity": 0.00077415,
        "meta_inclination": 66.0388,
        "meta_ra_of_asc_node": 164.1366,
        "meta_arg_of_pericenter": 269.2307,
        "meta_mean_anomaly": 90.7821,
        "meta_ephemeris_type": 0,
        "meta_classification_type": "U",
        "meta_norad_cat_id": 46984,
        "meta_element_set_no": 999,
        "meta_rev_at_epoch": 23633,
        "meta_bstar": 0.00012280627,
        "meta_mean_motion_dot": -3.3e-07,
        "meta_mean_motion_ddot": 0,
        "tle_line1": "1 46984U 20086A   25345.85940762 -.00000033  00000+0  12281-3 0  9990",
        "tle_line2": "2 46984  66.0388 164.1366 0007741 269.2307  90.7821 12.80930603236335"
      },
      "geometry": {
        "type": "Point",
        "coordinates": [
          145.05362025946675,
          -35.21287221579653
        ]
      }
    },
    {
      "type": "Feature",
      "properties": {
        "norad_id": 48079,
        "name": "GAOFEN-12 02",
        "group": "resource",
        "lat": -37.640518967658984,
        "lon": 154.0351491424808,
        "alt_km": 634.7042504290157,
        "timestamp": "2025-12-12T05:47:28.429778+00:00",
        "meta_object_name": "GAOFEN-12 02",
        "meta_object_id": "2021-026A",
        "meta_epoch": "2025-12-11T23:56:40.187040",
        "meta_mean_motion": 14.80673775,
        "meta_eccentricity": 0.00035246,
        "meta_inclination": 97.9851,
        "meta_ra_of_asc_node": 340.0076,
        "meta_arg_of_pericenter": 102.6076,
        "meta_mean_anomaly": 257.553,
        "meta_ephemeris_type": 0,
        "meta_classification_type": "U",
        "meta_norad_cat_id": 48079,
        "meta_element_set_no": 999,
        "meta_rev_at_epoch": 25406,
        "meta_bstar": 0.00011741286,
        "meta_mean_motion_dot": 8.5e-06,
        "meta_mean_motion_ddot": 0,
        "tle_line1": "1 48079U 21026A   25345.99768735  .00000850  00000+0  11741-3 0  9991",
        "tle_line2": "2 48079  97.9851 340.0076 0003524 102.6076 257.5530 14.80673775254067"
      },
      "geometry": {
        "type": "Point",
        "coordinates": [
          154.0351491424808,
          -37.640518967658984
        ]
      }
    },
    {
      "type": "Feature",
      "properties": {
        "norad_id": 48268,
        "name": "PLEIADES NEO 3",
        "group": "resource",
        "lat": -74.70984597292491,
        "lon": 89.18780319651619,
        "alt_km": 632.3116769661583,
        "timestamp": "2025-12-12T05:47:28.429789+00:00",
        "meta_object_name": "PLEIADES NEO 3",
        "meta_object_id": "2021-034A",
        "meta_epoch": "2025-12-11T20:24:47.310048",
        "meta_mean_motion": 14.81680713,
        "meta_eccentricity": 0.00014143,
        "meta_inclination": 97.894,
        "meta_ra_of_asc_node": 58.3039,
        "meta_arg_of_pericenter": 92.7812,
        "meta_mean_anomaly": 267.3563,
        "meta_ephemeris_type": 0,
        "meta_classification_type": "U",
        "meta_norad_cat_id": 48268,
        "meta_element_set_no": 999,
        "meta_rev_at_epoch": 24991,
        "meta_bstar": 0.00023994811,
        "meta_mean_motion_dot": 1.837e-05,
        "meta_mean_motion_ddot": 0,
        "tle_line1": "1 48268U 21034A   25345.85054757  .00001837  00000+0  23995-3 0  9997",
        "tle_line2": "2 48268  97.8940  58.3039 0001414  92.7812 267.3563 14.81680713249910"
      },
      "geometry": {
        "type": "Point",
        "coordinates": [
          89.18780319651619,
          -74.70984597292491
        ]
      }
    },
    {
      "type": "Feature",
      "properties": {
        "norad_id": 49070,
        "name": "PLEIADES NEO 4",
        "group": "resource",
        "lat": 74.63381879621484,
        "lon": -90.99004327738422,
        "alt_km": 616.0512605195581,
        "timestamp": "2025-12-12T05:47:28.429799+00:00",
        "meta_object_name": "PLEIADES NEO 4",
        "meta_object_id": "2021-073E",
        "meta_epoch": "2025-12-12T00:27:53.700192",
        "meta_mean_motion": 14.81675424,
        "meta_eccentricity": 0.0001288,
        "meta_inclination": 97.8942,
        "meta_ra_of_asc_node": 58.4666,
        "meta_arg_of_pericenter": 91.2005,
        "meta_mean_anomaly": 268.9356,
        "meta_ephemeris_type": 0,
        "meta_classification_type": "U",
        "meta_norad_cat_id": 49070,
        "meta_element_set_no": 999,
        "meta_rev_at_epoch": 23365,
        "meta_bstar": -2.9116991e-05,
        "meta_mean_motion_dot": -2.81e-06,
        "meta_mean_motion_ddot": 0,
        "tle_line1": "1 49070U 21073E   25346.01937153 -.00000281  00000+0 -29117-4 0  9998",
        "tle_line2": "2 49070  97.8942  58.4666 0001288  91.2005 268.9356 14.81675424233652"
      },
      "geometry": {
        "type": "Point",
        "coordinates": [
          -90.99004327738422,
          74.63381879621484
        ]
      }
    },
    {
      "type": "Feature",
      "properties": {
        "norad_id": 49260,
        "name": "LANDSAT 9",
        "group": "resource",
        "lat": 15.818143996259032,
        "lon": -123.29630266807823,
        "alt_km": 703.0976768042274,
        "timestamp": "2025-12-12T05:47:28.429809+00:00",
        "meta_object_name": "LANDSAT 9",
        "meta_object_id": "2021-088A",
        "meta_epoch": "2025-12-11T15:51:24.736608",
        "meta_mean_motion": 14.57096516,
        "meta_eccentricity": 0.00011639,
        "meta_inclination": 98.2094,
        "meta_ra_of_asc_node": 53.7875,
        "meta_arg_of_pericenter": 87.9655,
        "meta_mean_anomaly": 272.1677,
        "meta_ephemeris_type": 0,
        "meta_classification_type": "U",
        "meta_norad_cat_id": 49260,
        "meta_element_set_no": 999,
        "meta_rev_at_epoch": 22369,
        "meta_bstar": 0.00016882215,
        "meta_mean_motion_dot": 7.15e-06,
        "meta_mean_motion_ddot": 0,
        "tle_line1": "1 49260U 21088A   25345.66070297  .00000715  00000+0  16882-3 0  9996",
        "tle_line2": "2 49260  98.2094  53.7875 0001163  87.9655 272.1677 14.57096516223699"
      },
      "geometry": {
        "type": "Point",
        "coordinates": [
          -123.29630266807823,
          15.818143996259032
        ]
      }
    }
  ]
}